{
 "generated_at": "2026-06-17T09:51:32Z",
 "sources": [
  {
   "name": "CelesTrak",
   "url": "https://celestrak.org/NORAD/elements/",
   "license": "frei verfügbar; Attribution. Ursprünglich USSPACECOM/Space-Track."
  },
  {
   "name": "GCAT (J. McDowell, planet4589.org)",
   "url": "https://planet4589.org/space/gcat/",
   "license": "CC-BY 4.0"
  }
 ],
 "satellites": [
  {
   "norad": 32376,
   "name": "COSMO-SKYMED 2",
   "intl": "2007-059A",
   "group": "resource",
   "gcat": {
    "class": "D",
    "category": "IMG-R",
    "owner": "ASI",
    "state": "I"
   },
   "omm": {
    "OBJECT_NAME": "COSMO-SKYMED 2",
    "OBJECT_ID": "2007-059A",
    "EPOCH": "2026-06-17T03:51:54.433152",
    "MEAN_MOTION": 14.82155005,
    "ECCENTRICITY": 0.0001351,
    "INCLINATION": 97.8886,
    "RA_OF_ASC_NODE": 351.7594,
    "ARG_OF_PERICENTER": 87.171,
    "MEAN_ANOMALY": 272.9658,
    "EPHEMERIS_TYPE": 0,
    "CLASSIFICATION_TYPE": "U",
    "NORAD_CAT_ID": 32376,
    "ELEMENT_SET_NO": 999,
    "REV_AT_EPOCH": 200,
    "BSTAR": 0.000046291,
    "MEAN_MOTION_DOT": 0.00000316,
    "MEAN_MOTION_DDOT": 0
   }
  },
  {
   "norad": 33412,
   "name": "COSMO-SKYMED 3",
   "intl": "2008-054A",
   "group": "resource",
   "gcat": {
    "class": null,
    "category": null,
    "owner": null,
    "state": null
   },
   "omm": {
    "OBJECT_NAME": "COSMO-SKYMED 3",
    "OBJECT_ID": "2008-054A",
    "EPOCH": "2026-06-17T03:26:08.890080",
    "MEAN_MOTION": 15.06953532,
    "ECCENTRICITY": 0.0014174,
    "INCLINATION": 97.8281,
    "RA_OF_ASC_NODE": 26.7131,
    "ARG_OF_PERICENTER": 267.1356,
    "MEAN_ANOMALY": 92.8249,
    "EPHEMERIS_TYPE": 0,
    "CLASSIFICATION_TYPE": "U",
    "NORAD_CAT_ID": 33412,
    "ELEMENT_SET_NO": 999,
    "REV_AT_EPOCH": 95693,
    "BSTAR": 0.00018046,
    "MEAN_MOTION_DOT": 0.00002638,
    "MEAN_MOTION_DDOT": 0
   }
  },
  {
   "norad": 37216,
   "name": "COSMO-SKYMED 4",
   "intl": "2010-060A",
   "group": "resource",
   "gcat": {
    "class": "D",
    "category": "IMG-R",
    "owner": "ASI",
    "state": "I"
   },
   "omm": {
    "OBJECT_NAME": "COSMO-SKYMED 4",
    "OBJECT_ID": "2010-060A",
    "EPOCH": "2026-06-17T04:10:08.840352",
    "MEAN_MOTION": 14.82151559,
    "ECCENTRICITY": 0.0001408,
    "INCLINATION": 97.8879,
    "RA_OF_ASC_NODE": 351.7732,
    "ARG_OF_PERICENTER": 80.1411,
    "MEAN_ANOMALY": 279.9961,
    "EPHEMERIS_TYPE": 0,
    "CLASSIFICATION_TYPE": "U",
    "NORAD_CAT_ID": 37216,
    "ELEMENT_SET_NO": 999,
    "REV_AT_EPOCH": 84456,
    "BSTAR": -0.000027232,
    "MEAN_MOTION_DOT": -0.00000269,
    "MEAN_MOTION_DDOT": 0
   }
  },
  {
   "norad": 44873,
   "name": "CSG-1",
   "intl": "2019-092A",
   "group": "resource",
   "gcat": {
    "class": "D",
    "category": "IMG-R",
    "owner": "MDDI/ASI",
    "state": "I"
   },
   "omm": {
    "OBJECT_NAME": "CSG-1",
    "OBJECT_ID": "2019-092A",
    "EPOCH": "2026-06-17T04:28:22.310112",
    "MEAN_MOTION": 14.82153169,
    "ECCENTRICITY": 0.000147,
    "INCLINATION": 97.8888,
    "RA_OF_ASC_NODE": 351.7888,
    "ARG_OF_PERICENTER": 89.405,
    "MEAN_ANOMALY": 270.7332,
    "EPHEMERIS_TYPE": 0,
    "CLASSIFICATION_TYPE": "U",
    "NORAD_CAT_ID": 44873,
    "ELEMENT_SET_NO": 999,
    "REV_AT_EPOCH": 35147,
    "BSTAR": 0.000044909,
    "MEAN_MOTION_DOT": 0.00000305,
    "MEAN_MOTION_DDOT": 0
   }
  },
  {
   "norad": 51444,
   "name": "CSG-2",
   "intl": "2022-008A",
   "group": "resource",
   "gcat": {
    "class": "D",
    "category": "IMG-R",
    "owner": "MDDI/ASI",
    "state": "I"
   },
   "omm": {
    "OBJECT_NAME": "CSG-2",
    "OBJECT_ID": "2022-008A",
    "EPOCH": "2026-06-17T03:39:44.246880",
    "MEAN_MOTION": 14.82157581,
    "ECCENTRICITY": 0.0001478,
    "INCLINATION": 97.8877,
    "RA_OF_ASC_NODE": 351.7506,
    "ARG_OF_PERICENTER": 84.8143,
    "MEAN_ANOMALY": 275.3239,
    "EPHEMERIS_TYPE": 0,
    "CLASSIFICATION_TYPE": "U",
    "NORAD_CAT_ID": 51444,
    "ELEMENT_SET_NO": 999,
    "REV_AT_EPOCH": 23658,
    "BSTAR": 0.000073997,
    "MEAN_MOTION_DOT": 0.00000537,
    "MEAN_MOTION_DDOT": 0
   }
  },
  {
   "norad": 67304,
   "name": "CSG-3",
   "intl": "2026-001A",
   "group": "resource",
   "gcat": {
    "class": "D",
    "category": "IMG-R",
    "owner": "MDDI/ASI",
    "state": "I"
   },
   "omm": {
    "OBJECT_NAME": "CSG-3",
    "OBJECT_ID": "2026-001A",
    "EPOCH": "2026-06-17T01:32:11.088672",
    "MEAN_MOTION": 14.82153752,
    "ECCENTRICITY": 0.0001379,
    "INCLINATION": 97.8887,
    "RA_OF_ASC_NODE": 351.6676,
    "ARG_OF_PERICENTER": 94.5456,
    "MEAN_ANOMALY": 265.5915,
    "EPHEMERIS_TYPE": 0,
    "CLASSIFICATION_TYPE": "U",
    "NORAD_CAT_ID": 67304,
    "ELEMENT_SET_NO": 999,
    "REV_AT_EPOCH": 2444,
    "BSTAR": 0.000036279,
    "MEAN_MOTION_DOT": 0.00000237,
    "MEAN_MOTION_DDOT": 0
   }
  },
  {
   "norad": 41887,
   "name": "CYGFM01",
   "intl": "2016-078D",
   "group": "weather",
   "gcat": {
    "class": "C",
    "category": "EOSCI",
    "owner": "LARCN/SWRIB",
    "state": "US"
   },
   "omm": {
    "OBJECT_NAME": "CYGFM01",
    "OBJECT_ID": "2016-078D",
    "EPOCH": "2026-06-16T23:25:13.586880",
    "MEAN_MOTION": 15.57342309,
    "ECCENTRICITY": 0.0006767,
    "INCLINATION": 34.9396,
    "RA_OF_ASC_NODE": 263.0479,
    "ARG_OF_PERICENTER": 143.116,
    "MEAN_ANOMALY": 217.0031,
    "EPHEMERIS_TYPE": 0,
    "CLASSIFICATION_TYPE": "U",
    "NORAD_CAT_ID": 41887,
    "ELEMENT_SET_NO": 999,
    "REV_AT_EPOCH": 52867,
    "BSTAR": 0.00029036,
    "MEAN_MOTION_DOT": 0.00021975,
    "MEAN_MOTION_DDOT": 0
   }
  },
  {
   "norad": 41886,
   "name": "CYGFM02",
   "intl": "2016-078C",
   "group": "weather",
   "gcat": {
    "class": "C",
    "category": "EOSCI",
    "owner": "LARCN/SWRIB",
    "state": "US"
   },
   "omm": {
    "OBJECT_NAME": "CYGFM02",
    "OBJECT_ID": "2016-078C",
    "EPOCH": "2026-06-16T13:50:13.214976",
    "MEAN_MOTION": 15.64470617,
    "ECCENTRICITY": 0.0007626,
    "INCLINATION": 34.9393,
    "RA_OF_ASC_NODE": 226.9084,
    "ARG_OF_PERICENTER": 190.6958,
    "MEAN_ANOMALY": 169.3607,
    "EPHEMERIS_TYPE": 0,
    "CLASSIFICATION_TYPE": "U",
    "NORAD_CAT_ID": 41886,
    "ELEMENT_SET_NO": 999,
    "REV_AT_EPOCH": 52907,
    "BSTAR": 0.00027656,
    "MEAN_MOTION_DOT": 0.00027611,
    "MEAN_MOTION_DDOT": 0
   }
  },
  {
   "norad": 41891,
   "name": "CYGFM03",
   "intl": "2016-078H",
   "group": "weather",
   "gcat": {
    "class": "C",
    "category": "EOSCI",
    "owner": "LARCN/SWRIB",
    "state": "US"
   },
   "omm": {
    "OBJECT_NAME": "CYGFM03",
    "OBJECT_ID": "2016-078H",
    "EPOCH": "2026-06-16T20:46:50.149344",
    "MEAN_MOTION": 15.60098311,
    "ECCENTRICITY": 0.0006493,
    "INCLINATION": 34.939,
    "RA_OF_ASC_NODE": 233.6449,
    "ARG_OF_PERICENTER": 179.317,
    "MEAN_ANOMALY": 180.7564,
    "EPHEMERIS_TYPE": 0,
    "CLASSIFICATION_TYPE": "U",
    "NORAD_CAT_ID": 41891,
    "ELEMENT_SET_NO": 999,
    "REV_AT_EPOCH": 52892,
    "BSTAR": 0.00028179,
    "MEAN_MOTION_DOT": 0.00023686,
    "MEAN_MOTION_DDOT": 0
   }
  },
  {
   "norad": 41885,
   "name": "CYGFM04",
   "intl": "2016-078B",
   "group": "weather",
   "gcat": {
    "class": "C",
    "category": "EOSCI",
    "owner": "LARCN/SWRIB",
    "state": "US"
   },
   "omm": {
    "OBJECT_NAME": "CYGFM04",
    "OBJECT_ID": "2016-078B",
    "EPOCH": "2026-06-16T13:47:32.758080",
    "MEAN_MOTION": 15.61485848,
    "ECCENTRICITY": 0.0006598,
    "INCLINATION": 34.9314,
    "RA_OF_ASC_NODE": 232.3673,
    "ARG_OF_PERICENTER": 189.8115,
    "MEAN_ANOMALY": 170.2483,
    "EPHEMERIS_TYPE": 0,
    "CLASSIFICATION_TYPE": "U",
    "NORAD_CAT_ID": 41885,
    "ELEMENT_SET_NO": 999,
    "REV_AT_EPOCH": 52890,
    "BSTAR": 0.00026669,
    "MEAN_MOTION_DOT": 0.00023651,
    "MEAN_MOTION_DDOT": 0
   }
  }
 ]
}
